{ "type": "FeatureCollection", "features": [{ "type": "Feature", "properties": { "category": 0, "avg_value": 124.71 }, "geometry": { "type": "MultiPolygon", "coordinates": [[[[21.70607709507315,47.63932077771336],[21.70567418307797,47.639593095296995],[21.705633891878456,47.63962032705536],[21.705607031078777,47.63967479057209],[21.70533842308199,47.64030112101445],[21.70536528388167,47.64034650727839],[21.705499587880063,47.640373739036754],[21.708669162242145,47.640373739036754],[21.711140355812585,47.64036466178396],[21.711100064613067,47.64031927552003],[21.71003906302576,47.63961124980257],[21.709945050226885,47.639556786285844],[21.709730163829455,47.63951140002191],[21.70903178303781,47.6394387819996],[21.70652029826785,47.63932077771336],[21.70607709507315,47.63932077771336]]],[[[21.706439715868814,47.63784118550894],[21.705835347876043,47.63814981210373],[21.705821917476204,47.63815888935651],[21.705781626276686,47.63819519836767],[21.705042954285524,47.63887599232675],[21.705056384685363,47.638930455843486],[21.705177258283918,47.63902122837136],[21.705244410283115,47.63903938287694],[21.70656058946737,47.639311700460574],[21.70713809666046,47.639420627494026],[21.708709453441664,47.63942970474682],[21.708722883841503,47.63942970474682],[21.70899149183829,47.63941155024124],[21.709098935037005,47.63939339573567],[21.70921980863556,47.6393661639773],[21.709286960634756,47.639338932218934],[21.709286960634756,47.63932985496615],[21.70917951743604,47.63911200089924],[21.70676204546496,47.63791380353124],[21.706574019867208,47.637859340014515],[21.706453146268654,47.63784118550894],[21.706439715868814,47.63784118550894]]]] }},{ "type": "Feature", "properties": { "category": 1, "avg_value": 132.70 }, "geometry": { "type": "MultiPolygon", "coordinates": [[[[21.707997642250177,47.63716039154985],[21.705835347876043,47.63748717265021],[21.70468033348986,47.637714103969905],[21.704613181490664,47.63773225847548],[21.704586320690986,47.637750412981056],[21.70449230789211,47.638095348587],[21.70449230789211,47.63923908243827],[21.704801207088416,47.639983417166874],[21.705419005481026,47.64021942573936],[21.709904759027367,47.64036466178396],[21.7112477990113,47.64036466178396],[21.711341811810176,47.64032835277281],[21.711355242210015,47.64031019826724],[21.711355242210015,47.63857644298476],[21.711288090210818,47.63819519836767],[21.71126122941114,47.638113503092576],[21.708924339839093,47.63729655034167],[21.70858857984311,47.637187623308215],[21.708011072650017,47.63716039154985],[21.707997642250177,47.63716039154985]]]] }},{ "type": "Feature", "properties": { "category": 2, "avg_value": 145.72 }, "geometry": { "type": "MultiPolygon", "coordinates": [[[[21.70449230789211,47.635735262862156],[21.70449230789211,47.63769594946433],[21.704586320690986,47.63773225847548],[21.70650686786801,47.63834951166506],[21.70860201024295,47.63881245155724],[21.708642301442467,47.63881245155724],[21.708830327040218,47.63873075628215],[21.708857187839897,47.638712601776575],[21.711301520610657,47.63681545594391],[21.711301520610657,47.636760992427185],[21.711100064613067,47.63638882506288],[21.7087900358407,47.63575341736773],[21.70860201024295,47.635735262862156],[21.70449230789211,47.635735262862156]]],[[[21.709488416632347,47.635735262862156],[21.709340682234114,47.63575341736773],[21.709286960634756,47.635762494620515],[21.709246669435238,47.63581695813724],[21.709327251834274,47.635934962423484],[21.710012202226082,47.63620728000712],[21.71107320381339,47.636370670557305],[21.711113495012906,47.636370670557305],[21.711355242210015,47.63631620704058],[21.711355242210015,47.635735262862156],[21.709488416632347,47.635735262862156]]]] }}]}